{"type": "FeatureCollection", "features": [ {"type": "Feature", "properties": {"norad_id": 43262, "name": "GAOFEN-1 04", "group": "resource", "lat": 79.94697162919931, "lon": -5.480359650571498, "alt_km": 632.535539125277, "timestamp": "2025-12-15T22:44:28.581100+00:00", "meta": {"OBJECT_NAME": "GAOFEN-1 04", "OBJECT_ID": "2018-031D", "EPOCH": "2025-12-15T07:43:25.807008", "MEAN_MOTION": 14.76457232, "ECCENTRICITY": 9.526e-05, "INCLINATION": 98.0808, "RA_OF_ASC_NODE": 47.1583, "ARG_OF_PERICENTER": 59.149, "MEAN_ANOMALY": 300.9813, "EPHEMERIS_TYPE": 0, "CLASSIFICATION_TYPE": "U", "NORAD_CAT_ID": 43262, "ELEMENT_SET_NO": 999, "REV_AT_EPOCH": 41555, "BSTAR": 0.00017481842, "MEAN_MOTION_DOT": 1.165e-05, "MEAN_MOTION_DDOT": 0}, "tle": {"line1": "1 43262U 18031D   25349.32182647  .00001165  00000+0  17482-3 0  9993", "line2": "2 43262  98.0808  47.1583 0000952  59.1490 300.9813 14.76457232415559"}}, "geometry": {"type": "Point", "coordinates": [-5.480359650571498, 79.94697162919931]}}, {"type": "Feature", "properties": {"norad_id": 43437, "name": "SENTINEL-3B", "group": "resource", "lat": 36.80201085471581, "lon": 48.56536847928188, "alt_km": 799.4188159801197, "timestamp": "2025-12-15T22:44:28.581114+00:00", "meta": {"OBJECT_NAME": "SENTINEL-3B", "OBJECT_ID": "2018-039A", "EPOCH": "2025-12-15T04:03:09.890208", "MEAN_MOTION": 14.26734832, "ECCENTRICITY": 0.00016341, "INCLINATION": 98.6266, "RA_OF_ASC_NODE": 54.3194, "ARG_OF_PERICENTER": 99.3535, "MEAN_ANOMALY": 260.783, "EPHEMERIS_TYPE": 0, "CLASSIFICATION_TYPE": "U", "NORAD_CAT_ID": 43437, "ELEMENT_SET_NO": 999, "REV_AT_EPOCH": 39788, "BSTAR": 7.3329295e-05, "MEAN_MOTION_DOT": 1.34e-06, "MEAN_MOTION_DDOT": 0}, "tle": {"line1": "1 43437U 18039A   25349.16886447  .00000134  00000+0  73329-4 0  9994", "line2": "2 43437  98.6266  54.3194 0001634  99.3535 260.7830 14.26734832397885"}}, "geometry": {"type": "Point", "coordinates": [48.56536847928188, 36.80201085471581]}}, {"type": "Feature", "properties": {"norad_id": 43461, "name": "GAOFEN-5 01", "group": "resource", "lat": 53.9001771119083, "lon": -58.76735543957697, "alt_km": 686.7161091737062, "timestamp": "2025-12-15T22:44:28.581125+00:00", "meta": {"OBJECT_NAME": "GAOFEN-5 01", "OBJECT_ID": "2018-043A", "EPOCH": "2025-12-15T07:41:32.362944", "MEAN_MOTION": 14.60412576, "ECCENTRICITY": 7.784e-05, "INCLINATION": 98.4328, "RA_OF_ASC_NODE": 312.3329, "ARG_OF_PERICENTER": 329.6302, "MEAN_ANOMALY": 30.4852, "EPHEMERIS_TYPE": 0, "CLASSIFICATION_TYPE": "U", "NORAD_CAT_ID": 43461, "ELEMENT_SET_NO": 999, "REV_AT_EPOCH": 40485, "BSTAR": 0.00010795371, "MEAN_MOTION_DOT": 4.74e-06, "MEAN_MOTION_DDOT": 0}, "tle": {"line1": "1 43461U 18043A   25349.32051346  .00000474  00000+0  10795-3 0  9990", "line2": "2 43461  98.4328 312.3329 0000778 329.6302  30.4852 14.60412576404853"}}, "geometry": {"type": "Point", "coordinates": [-58.76735543957697, 53.9001771119083]}}, {"type": "Feature", "properties": {"norad_id": 43484, "name": "GAOFEN-6", "group": "resource", "lat": -55.736195112457466, "lon": -137.5064108546952, "alt_km": 656.4138838080089, "timestamp": "2025-12-15T22:44:28.581135+00:00", "meta": {"OBJECT_NAME": "GAOFEN-6", "OBJECT_ID": "2018-048A", "EPOCH": "2025-12-15T08:39:47.260224", "MEAN_MOTION": 14.76574832, "ECCENTRICITY": 0.00131125, "INCLINATION": 97.8031, "RA_OF_ASC_NODE": 53.5396, "ARG_OF_PERICENTER": 56.1221, "MEAN_ANOMALY": 304.1234, "EPHEMERIS_TYPE": 0, "CLASSIFICATION_TYPE": "U", "NORAD_CAT_ID": 43484, "ELEMENT_SET_NO": 999, "REV_AT_EPOCH": 40626, "BSTAR": 0.00021832308, "MEAN_MOTION_DOT": 1.476e-05, "MEAN_MOTION_DDOT": 0}, "tle": {"line1": "1 43484U 18048A   25349.36096366  .00001476  00000+0  21832-3 0  9992", "line2": "2 43484  97.8031  53.5396 0013112  56.1221 304.1234 14.76574832406261"}}, "geometry": {"type": "Point", "coordinates": [-137.5064108546952, -55.736195112457466]}}, {"type": "Feature", "properties": {"norad_id": 43585, "name": "GAOFEN-11 01", "group": "resource", "lat": 18.59759208859981, "lon": -124.72130654426107, "alt_km": 421.2313037234653, "timestamp": "2025-12-15T22:44:28.581146+00:00", "meta": {"OBJECT_NAME": "GAOFEN-11 01", "OBJECT_ID": "2018-063A", "EPOCH": "2025-12-15T08:05:48.272928", "MEAN_MOTION": 15.49299058, "ECCENTRICITY": 0.00041594, "INCLINATION": 97.1565, "RA_OF_ASC_NODE": 52.2503, "ARG_OF_PERICENTER": 300.5395, "MEAN_ANOMALY": 59.5446, "EPHEMERIS_TYPE": 0, "CLASSIFICATION_TYPE": "U", "NORAD_CAT_ID": 43585, "ELEMENT_SET_NO": 999, "REV_AT_EPOCH": 41182, "BSTAR": 0.00020436983, "MEAN_MOTION_DOT": 0.00011088, "MEAN_MOTION_DDOT": 0}, "tle": {"line1": "1 43585U 18063A   25349.33736427  .00011088  00000+0  20437-3 0  9997", "line2": "2 43585  97.1565  52.2503 0004159 300.5395  59.5446 15.49299058411822"}}, "geometry": {"type": "Point", "coordinates": [-124.72130654426107, 18.59759208859981]}}, {"type": "Feature", "properties": {"norad_id": 43613, "name": "ICESAT-2", "group": "resource", "lat": 14.515883833811635, "lon": -118.91682078901621, "alt_km": 482.87019771485484, "timestamp": "2025-12-15T22:44:28.581156+00:00", "meta": {"OBJECT_NAME": "ICESAT-2", "OBJECT_ID": "2018-070A", "EPOCH": "2025-12-15T06:57:47.924928", "MEAN_MOTION": 15.28306028, "ECCENTRICITY": 0.00026498, "INCLINATION": 92.005, "RA_OF_ASC_NODE": 241.4255, "ARG_OF_PERICENTER": 136.9083, "MEAN_ANOMALY": 223.2375, "EPHEMERIS_TYPE": 0, "CLASSIFICATION_TYPE": "U", "NORAD_CAT_ID": 43613, "ELEMENT_SET_NO": 999, "REV_AT_EPOCH": 40437, "BSTAR": 0.0003027198, "MEAN_MOTION_DOT": 8.344e-05, "MEAN_MOTION_DDOT": 0}, "tle": {"line1": "1 43613U 18070A   25349.29013802  .00008344  00000+0  30272-3 0  9996", "line2": "2 43613  92.0050 241.4255 0002649 136.9083 223.2375 15.28306028404376"}}, "geometry": {"type": "Point", "coordinates": [-118.91682078901621, 14.515883833811635]}}, {"type": "Feature", "properties": {"norad_id": 43719, "name": "HYSIS", "group": "resource", "lat": -63.099071961849106, "lon": 69.02296600521443, "alt_km": 641.174063768718, "timestamp": "2025-12-15T22:44:28.581166+00:00", "meta": {"OBJECT_NAME": "HYSIS", "OBJECT_ID": "2018-096A", "EPOCH": "2025-12-15T08:24:52.717824", "MEAN_MOTION": 14.78657368, "ECCENTRICITY": 0.00012714, "INCLINATION": 98.0098, "RA_OF_ASC_NODE": 52.3155, "ARG_OF_PERICENTER": 55.833, "MEAN_ANOMALY": 304.3001, "EPHEMERIS_TYPE": 0, "CLASSIFICATION_TYPE": "U", "NORAD_CAT_ID": 43719, "ELEMENT_SET_NO": 999, "REV_AT_EPOCH": 38025, "BSTAR": 0.00029853477, "MEAN_MOTION_DOT": 2.136e-05, "MEAN_MOTION_DDOT": 0}, "tle": {"line1": "1 43719U 18096A   25349.35061016  .00002136  00000+0  29853-3 0  9994", "line2": "2 43719  98.0098  52.3155 0001271  55.8330 304.3001 14.78657368380250"}}, "geometry": {"type": "Point", "coordinates": [69.02296600521443, -63.099071961849106]}}, {"type": "Feature", "properties": {"norad_id": 43783, "name": "KAZSTSAT", "group": "resource", "lat": 50.040983166862915, "lon": 16.003653543124425, "alt_km": 564.6155487031447, "timestamp": "2025-12-15T22:44:28.581177+00:00", "meta": {"OBJECT_NAME": "KAZSTSAT", "OBJECT_ID": "2018-099AB", "EPOCH": "2025-12-15T08:06:04.214592", "MEAN_MOTION": 14.99359645, "ECCENTRICITY": 0.00058736, "INCLINATION": 97.4556, "RA_OF_ASC_NODE": 24.4115, "ARG_OF_PERICENTER": 318.825, "MEAN_ANOMALY": 41.253, "EPHEMERIS_TYPE": 0, "CLASSIFICATION_TYPE": "U", "NORAD_CAT_ID": 43783, "ELEMENT_SET_NO": 999, "REV_AT_EPOCH": 38375, "BSTAR": 6.5780009e-05, "MEAN_MOTION_DOT": 7.49e-06, "MEAN_MOTION_DDOT": 0}, "tle": {"line1": "1 43783U 18099AB  25349.33754878  .00000749  00000+0  65780-4 0  9999", "line2": "2 43783  97.4556  24.4115 0005873 318.8250  41.2530 14.99359645383756"}}, "geometry": {"type": "Point", "coordinates": [16.003653543124425, 50.040983166862915]}}, {"type": "Feature", "properties": {"norad_id": 43831, "name": "SAUDISAT 5A", "group": "resource", "lat": 46.229161953533406, "lon": 42.3485800809218, "alt_km": 477.14954370917894, "timestamp": "2025-12-15T22:44:28.581187+00:00", "meta": {"OBJECT_NAME": "SAUDISAT 5A", "OBJECT_ID": "2018-102A", "EPOCH": "2025-12-15T08:22:15.341952", "MEAN_MOTION": 15.25692662, "ECCENTRICITY": 0.00116732, "INCLINATION": 97.3356, "RA_OF_ASC_NODE": 49.4895, "ARG_OF_PERICENTER": 68.2124, "MEAN_ANOMALY": 292.0356, "EPHEMERIS_TYPE": 0, "CLASSIFICATION_TYPE": "U", "NORAD_CAT_ID": 43831, "ELEMENT_SET_NO": 999, "REV_AT_EPOCH": 38762, "BSTAR": 0.00018518278, "MEAN_MOTION_DOT": 4.654e-05, "MEAN_MOTION_DDOT": 0}, "tle": {"line1": "1 43831U 18102A   25349.34878868  .00004654  00000+0  18518-3 0  9990", "line2": "2 43831  97.3356  49.4895 0011673  68.2124 292.0356 15.25692662387621"}}, "geometry": {"type": "Point", "coordinates": [42.3485800809218, 46.229161953533406]}}, {"type": "Feature", "properties": {"norad_id": 43833, "name": "SAUDISAT 5B", "group": "resource", "lat": 74.88012440082207, "lon": -98.66224064239354, "alt_km": 473.54069015238747, "timestamp": "2025-12-15T22:44:28.581202+00:00", "meta": {"OBJECT_NAME": "SAUDISAT 5B", "OBJECT_ID": "2018-102C", "EPOCH": "2025-12-15T08:07:41.480256", "MEAN_MOTION": 15.26043678, "ECCENTRICITY": 0.00124008, "INCLINATION": 97.3451, "RA_OF_ASC_NODE": 52.2229, "ARG_OF_PERICENTER": 70.4841, "MEAN_ANOMALY": 289.7735, "EPHEMERIS_TYPE": 0, "CLASSIFICATION_TYPE": "U", "NORAD_CAT_ID": 43833, "ELEMENT_SET_NO": 999, "REV_AT_EPOCH": 38773, "BSTAR": 0.00018793826, "MEAN_MOTION_DOT": 4.776e-05, "MEAN_MOTION_DDOT": 0}, "tle": {"line1": "1 43833U 18102C   25349.33867454  .00004776  00000+0  18794-3 0  9991", "line2": "2 43833  97.3451  52.2229 0012400  70.4841 289.7735 15.26043678387736"}}, "geometry": {"type": "Point", "coordinates": [-98.66224064239354, 74.88012440082207]}}]}